[{"OBJECT_NAME":"QIANFAN-52","OBJECT_ID":"2024-232S","EPOCH":"2026-03-09T21:39:20.659680","MEAN_MOTION":13.51001476,"ECCENTRICITY":0.00137563,"INCLINATION":89.0061,"RA_OF_ASC_NODE":32.3107,"ARG_OF_PERICENTER":306.4219,"MEAN_ANOMALY":53.5664,"EPHEMERIS_TYPE":0,"CLASSIFICATION_TYPE":"U","NORAD_CAT_ID":62253,"ELEMENT_SET_NO":999,"REV_AT_EPOCH":7971,"BSTAR":0.00012726091,"MEAN_MOTION_DOT":9.4e-7,"MEAN_MOTION_DDOT":0},{"OBJECT_NAME":"THORAD AGENA D DEB","OBJECT_ID":"1970-025GX","EPOCH":"2026-03-09T08:32:32.880768","MEAN_MOTION":13.52446511,"ECCENTRICITY":0.00206791,"INCLINATION":100.1307,"RA_OF_ASC_NODE":208.6125,"ARG_OF_PERICENTER":142.1219,"MEAN_ANOMALY":245.6469,"EPHEMERIS_TYPE":0,"CLASSIFICATION_TYPE":"U","NORAD_CAT_ID":4977,"ELEMENT_SET_NO":999,"REV_AT_EPOCH":75648,"BSTAR":0.00018355868,"MEAN_MOTION_DOT":7.5e-7,"MEAN_MOTION_DDOT":0}]
